1 44763U 19074BC  23162.37917218  .00023038  00000-0  15603-2 0  9990
2 44763  53.0549  46.1560 0001253 112.1902 247.9220 15.06403608197120
1 44763U 19074BC  23162.64455743  .00022770  00000-0  15420-2 0  9999
2 44763  53.0549  44.9644 0001251 113.8173 246.2947 15.06415070197163
1 44763U 19074BC  23162.64455743  .00022770  00000-0  15420-2 0  9999
2 44763  53.0549  44.9644 0001251 113.8173 246.2947 15.06415070197332
1 44763U 19074BC  23163.37436706  .00002920  00000-0  21478-3 0  9994
2 44763  53.0551  41.6907 0001393  88.4948 271.6200 15.06410976197272
1 44763U 19074BC  23163.37436706  .00002920  00000-0  21478-3 0  9994
2 44763  53.0551  41.6907 0001393  88.4948 271.6200 15.06410976197441
1 44763U 19074BC  23163.97149739  .00000838  00000-0  75181-4 0  9994
2 44763  53.0549  39.0078 0001223  97.2781 262.8347 15.06385846197534
1 44763U 19074BC  23164.76766616  .00019951  00000-0  13543-2 0  9999
2 44763  53.0550  35.4339 0001246  89.9134 270.1997 15.06405564197657
1 44763U 19074BC  23164.90035804  .00021952  00000-0  14875-2 0  9996
2 44763  53.0550  34.8383 0001173  94.4495 265.6628 15.06413688197509
1 44763U 19074BC  23165.03305004  .00023001  00000-0  15572-2 0  9995
2 44763  53.0550  34.2431 0001146  91.9714 268.1406 15.06419693197529
1 44763U 19074BC  23165.63017874  .00013018  00000-0  89130-3 0  9995
2 44763  53.0550  31.5628 0001459  90.5400 269.5756 15.06397152197787
1 44763U 19074BC  23165.89556912  .00017566  00000-0  11953-2 0  9993
2 44763  53.0551  30.3717 0001644  84.7417 275.3760 15.06396873197658
1 44763U 19074BC  23166.02826227  .00009313  00000-0  64335-3 0  9992
2 44763  53.0553  29.7750 0001024  75.3796 284.7307 15.06396864197670
1 44763U 19074BC  23166.02826227  .00009313  00000-0  64335-3 0  9992
2 44763  53.0553  29.7750 0001024  75.3796 284.7307 15.06396864197849
1 44763U 19074BC  23166.55903625  .00014674  00000-0  10017-2 0  9991
2 44763  53.0554  27.3919 0000993  71.3733 288.7364 15.06408738197753
1 44763U 19074BC  23166.89076530  .00018507  00000-0  12572-2 0  9991
2 44763  53.0556  25.9027 0001066  77.6519 282.4589 15.06424858197809
1 44763U 19074BC  23166.89076530  .00018507  00000-0  12572-2 0  9991
2 44763  53.0556  25.9027 0001066  77.6519 282.4589 15.06424858197977
1 44763U 19074BC  23167.62057661  .00015598  00000-0  10630-2 0  9997
2 44763  53.0551  22.6281 0000753  45.8012 314.3039 15.06426135198083
1 44763U 19074BC  23167.75327031 -.00001781  00000-0 -10071-3 0  9993
2 44763  53.0554  22.0313 0001325  99.6368 260.4771 15.06401759197935
1 44763U 19074BC  23167.88596841  .00016771  00000-0  11426-2 0  9991
2 44763  53.0553  21.4362 0001174  97.4887 262.6235 15.06383189198122
1 44763U 19074BC  23168.28405264  .00013450  00000-0  92031-3 0  9997
2 44763  53.0552  19.6494 0001206  96.6635 263.4491 15.06391016198013
1 44763U 19074BC  23168.88117040  .00016393  00000-0  11164-2 0  9991
2 44763  53.0552  16.9688 0001171  97.4111 262.7011 15.06414539198103
1 44763U 19074BC  23169.01386169  .00016653  00000-0  11336-2 0  9997
2 44763  53.0550  16.3726 0001158  95.9505 264.1616 15.06420413198298
1 44763U 19074BC  23169.27925305  .00006545  00000-0  45780-3 0  9996
2 44763  53.0549  15.1791 0001841  78.1041 282.0155 15.06407819198160
1 44763U 19074BC  23169.27925305  .00006545  00000-0  45780-3 0  9996
2 44763  53.0549  15.1791 0001841  78.1041 282.0155 15.06407819198339
1 44763U 19074BC  23169.74368264  .00001229  00000-0  10140-3 0  9999
2 44763  53.0544  13.0963 0001238  92.4309 267.6822 15.06395254198405
1 44763U 19074BC  23170.27445904  .00015530  00000-0  10590-2 0  9994
2 44763  53.0543  10.7134 0001221  87.7650 272.3479 15.06405614198319
1 44763U 19074BC  23170.27445904  .00015530  00000-0  10590-2 0  9994
2 44763  53.0543  10.7134 0001221  87.7650 272.3479 15.06405614198487
1 44763U 19074BC  23170.80522777  .00020907  00000-0  14173-2 0  9992
2 44763  53.0541   8.3305 0001175  85.9353 274.1770 15.06426950198396
1 44763U 19074BC  23171.26965579  .00019861  00000-0  13482-2 0  9993
2 44763  53.0539   6.2455 0001864  86.0822 274.0380 15.06407155198633
1 44763U 19074BC  23171.53504535  .00009844  00000-0  67886-3 0  9992
2 44763  53.0539   5.0548 0001794  92.5869 267.5325 15.06399517198502
1 44763U 19074BC  23171.73408467  .00003278  00000-0  23884-3 0  9996
2 44763  53.0544   4.1607 0001227  97.1151 262.9977 15.06400911198705
1 44763U 19074BC  23171.80043398  .00018391  00000-0  12506-2 0  9992
2 44763  53.0545   3.8635 0001198  97.1657 262.9468 15.06392692198544
1 44763U 19074BC  23172.53024411  .00020974  00000-0  14219-2 0  9991
2 44763  53.0545   0.5858 0001208 102.6366 257.4758 15.06421983198655
1 44763U 19074BC  23172.79562557  .00023813  00000-0  16106-2 0  9999
2 44763  53.0550 359.3954 0001087  97.1389 262.9723 15.06436357198868
1 44763U 19074BC  23173.79084460  .00022104  00000-0  14996-2 0  9999
2 44763  53.0554 354.9280 0001071  69.2742 290.8361 15.06364391199015
1 44763U 19074BC  23174.85239980  .00026409  00000-0  17844-2 0  9993
2 44763  53.0554 350.1627 0001100  63.5721 296.5380 15.06416378199179
1 44763U 19074BC  23175.18413812  .00013751  00000-0  94019-3 0  9994
2 44763  53.0551 348.6728 0001473  78.7923 281.3232 15.06401164199226
1 44763U 19074BC  23175.71491586  .00022198  00000-0  15045-2 0  9993
2 44763  53.0550 346.2909 0001134  79.0996 281.0121 15.06398595199304
1 44763U 19074BC  23176.84279079  .00025848  00000-0  17452-2 0  9998
2 44763  53.0548 341.2281 0001136  76.1426 283.9689 15.06454943199475
1 44763U 19074BC  23177.17452613  .00007658  00000-0  53212-3 0  9996
2 44763  53.0552 339.7383 0001071  93.6160 266.4952 15.06420755199521
1 44763U 19074BC  23177.70531095  .00016286  00000-0  11103-2 0  9996
2 44763  53.0546 337.3561 0001028 102.1612 257.9492 15.06380391199600
1 44763U 19074BC  23178.70051346  .00024018  00000-0  16249-2 0  9991
2 44763  53.0548 332.8887 0000963  97.1408 262.9690 15.06420448199756
1 44763U 19074BC  23179.43033378  .00017295  00000-0  11770-2 0  9990
2 44763  53.0546 329.6121 0001062  87.1326 272.9784 15.06403782199867
1 44763U 19074BC  23179.69572422  .00018924  00000-0  12864-2 0  9991
2 44763  53.0550 328.4209 0000895  70.6067 289.5019 15.06385644199904
1 44763U 19074BC  23181.68612678 -.00000368  00000-0 -58480-5 0  9993
2 44763  53.0563 319.4867 0001133  79.6920 280.4197 15.06395807200206
1 44763U 19074BC  23182.34959145  .00014367  00000-0  98103-3 0  9996
2 44763  53.0550 316.5066 0001055  79.3839 280.7269 15.06414464200305
1 44763U 19074BC  23183.07939966 -.00000375  00000-0 -62722-5 0  9992
2 44763  53.0547 313.2294 0001006  93.2723 266.8381 15.06406491200414
1 44763U 19074BC  23183.61017878  .00002487  00000-0  18576-3 0  9991
2 44763  53.0545 310.8474 0000838  71.6770 288.4310 15.06397929200494
1 44763U 19074BC  23184.60537661  .00015870  00000-0  10813-2 0  9993
2 44763  53.0549 306.3798 0000852  92.9239 267.1848 15.06421590200648
1 44763U 19074BC  23185.46789201  .00010205  00000-0  70289-3 0  9998
2 44763  53.0551 302.5084 0000949  66.7406 293.3683 15.06405285200774
1 44763U 19074BC  23185.60058593  .00006006  00000-0  42177-3 0  9996
2 44763  53.0549 301.9125 0000910  97.2129 262.8963 15.06397721200798
1 44763U 19074BC  23186.99387159  .00005782  00000-0  40666-3 0  9993
2 44763  53.0555 295.6574 0001057  56.4440 303.6650 15.06405473201004
1 44763U 19074BC  23187.32560865  .00001102  00000-0  92884-4 0  9990
2 44763  53.0552 294.1698 0001037  72.8586 287.2517 15.06396351201051
1 44763U 19074BC  23188.45349914  .00020880  00000-0  14154-2 0  9991
2 44763  53.0541 289.1065 0000983  66.7633 293.3460 15.06429540201226
1 44763U 19074BC  23188.98427000  .00010802  00000-0  74251-3 0  9990
2 44763  53.0543 286.7233 0001119  74.0175 286.0938 15.06421868201306
1 44763U 19074BC  23189.78044230  .00003565  00000-0  25819-3 0  9993
2 44763  53.0531 283.1496 0000819  87.9874 272.1208 15.06385439201422
1 44763U 19074BC  23190.97469430  .00008016  00000-0  55643-3 0  9993
2 44763  53.0533 277.7878 0000856  81.9905 278.1181 15.06396967201601
1 44763U 19074BC  23191.50547088  .00005076  00000-0  35944-3 0  9994
2 44763  53.0532 275.4055 0000885  82.5741 277.5348 15.06397469201683
1 44763U 19074BC  23192.23527829  .00008103  00000-0  56203-3 0  9991
2 44763  53.0536 272.1290 0000903  81.5498 278.5593 15.06415880201794
1 44763U 19074BC  23193.16412734  .00004209  00000-0  30118-3 0  9992
2 44763  53.0546 267.9587 0001008  79.4607 280.6496 15.06415820201937
1 44763U 19074BC  23193.49586270  .00002258  00000-0  17043-3 0  9999
2 44763  53.0548 266.4681 0000922  74.9306 285.1785 15.06404350201980
1 44763U 19074BC  23194.42471076  .00008026  00000-0  55679-3 0  9996
2 44763  53.0541 262.2981 0001014  76.1100 284.0001 15.06417913202124
1 44763U 19074BC  23194.88913984  .00004131  00000-0  29597-3 0  9998
2 44763  53.0545 260.2147 0001193  86.8932 273.2193 15.06406712202193
1 44763U 19074BC  23195.48626575  .00004025  00000-0  28899-3 0  9998
2 44763  53.0538 257.5349 0001093  95.3795 264.7319 15.06393245202280
1 44763U 19074BC  23196.41512281  .00017086  00000-0  11627-2 0  9991
2 44763  53.0534 253.3649 0001100  94.9385 265.1730 15.06414249202428
1 44763U 19074BC  23197.14494596 -.00004111  00000-0 -25739-3 0  9997
2 44763  53.0530 250.0889 0001139  80.3370 279.7747 15.06382141202535
1 44763U 19074BC  23198.40555149  .00008702  00000-0  60246-3 0  9999
2 44763  53.0529 244.4289 0001099  73.9275 286.1835 15.06393375202723
1 44763U 19074BC  23199.46710130  .00007462  00000-0  51923-3 0  9993
2 44763  53.0526 239.6639 0001153  72.7210 287.3905 15.06405785202889
1 44763U 19074BC  23202.12096242  .00002781  00000-0  20551-3 0  9994
2 44763  53.0525 227.7492 0001014  84.9289 275.1815 15.06403517203281
1 44763U 19074BC  23205.04022641  .00001544  00000-0  12252-3 0  9995
2 44763  53.0520 214.6427 0000976  76.7630 283.3468 15.06401060203550
1 44763U 19074BC  23206.30082617  .00005724  00000-0  40297-3 0  9998
2 44763  53.0541 208.9899 0001631  81.9545 278.1629 15.06386654203747
